{
    "links": {
        "self": "http://www.neowsapp.com/rest/v1/neo/3785767?api_key=iIulBulltgU6a56xZRHN4H3l9WmuAYTsLGpBGhQ2"
    },
    "id": "3785767",
    "neo_reference_id": "3785767",
    "name": "(2017 TF4)",
    "designation": "2017 TF4",
    "nasa_jpl_url": "http://ssd.jpl.nasa.gov/sbdb.cgi?sstr=3785767",
    "absolute_magnitude_h": 23.6,
    "estimated_diameter": {
        "kilometers": {
            "estimated_diameter_min": 0.0506471459,
            "estimated_diameter_max": 0.1132504611
        },
        "meters": {
            "estimated_diameter_min": 50.6471458835,
            "estimated_diameter_max": 113.2504610618
        },
        "miles": {
            "estimated_diameter_min": 0.0314706677,
            "estimated_diameter_max": 0.0703705522
        },
        "feet": {
            "estimated_diameter_min": 166.1651821003,
            "estimated_diameter_max": 371.5566426699
        }
    },
    "is_potentially_hazardous_asteroid": false,
    "close_approach_data": [
        {
            "close_approach_date": "2017-10-14",
            "close_approach_date_full": "2017-Oct-14 16:03",
            "epoch_date_close_approach": 1507996980000,
            "relative_velocity": {
                "kilometers_per_second": "29.7025378529",
                "kilometers_per_hour": "106929.1362705822",
                "miles_per_hour": "66441.6069232404"
            },
            "miss_distance": {
                "astronomical": "0.0901624947",
                "lunar": "35.0732104383",
                "kilometers": "13488117.161006289",
                "miles": "8381127.3658092282"
            },
            "orbiting_body": "Earth"
        },
        {
            "close_approach_date": "2018-03-23",
            "close_approach_date_full": "2018-Mar-23 18:55",
            "epoch_date_close_approach": 1521831300000,
            "relative_velocity": {
                "kilometers_per_second": "31.2389023296",
                "kilometers_per_hour": "112460.0483866975",
                "miles_per_hour": "69878.3006211677"
            },
            "miss_distance": {
                "astronomical": "0.489243902",
                "lunar": "190.315877878",
                "kilometers": "73189845.64968874",
                "miles": "45478061.240995012"
            },
            "orbiting_body": "Earth"
        },
        {
            "close_approach_date": "2019-04-20",
            "close_approach_date_full": "2019-Apr-20 21:16",
            "epoch_date_close_approach": 1555794960000,
            "relative_velocity": {
                "kilometers_per_second": "33.9092512844",
                "kilometers_per_hour": "122073.3046236726",
                "miles_per_hour": "75851.6041979703"
            },
            "miss_distance": {
                "astronomical": "0.2537217468",
                "lunar": "98.6977595052",
                "kilometers": "37956232.893959316",
                "miles": "23584909.4735219208"
            },
            "orbiting_body": "Earth"
        }
    ],
    "orbital_data": {
        "orbit_id": "4",
        "orbit_determination_date": "2020-09-11 07:38:30",
        "first_observation_date": "2017-10-11",
        "last_observation_date": "2017-10-19",
        "data_arc_in_days": 8,
        "observations_used": 74,
        "orbit_uncertainty": "9",
        "minimum_orbit_intersection": ".03448",
        "jupiter_tisserand_invariant": "5.221",
        "epoch_osculation": "2458039.5",
        "eccentricity": ".2419850441837244",
        "semi_major_axis": "1.087455114598527",
        "inclination": "60.55201206066582",
        "ascending_node_longitude": "19.95642186933393",
        "orbital_period": "414.2050954675215",
        "perihelion_distance": ".8243072406445855",
        "perihelion_argument": "104.1872279116443",
        "aphelion_distance": "1.350602988552469",
        "perihelion_time": "2458128.177043067073",
        "mean_anomaly": "282.9277093558849",
        "mean_motion": ".8691346483646245",
        "equinox": "J2000",
        "orbit_class": {
            "orbit_class_type": "APO",
            "orbit_class_description": "Near-Earth asteroid orbits which cross the Earth’s orbit similar to that of 1862 Apollo",
            "orbit_class_range": "a (semi-major axis) > 1.0 AU; q (perihelion) < 1.017 AU"
        }
    },
    "is_sentry_object": false
}